start=new Date('2022-12-10T00:00:00.000Z').valueOf();
sats=[{"EPOCH":"2022-12-09T19:48:09.986112","TLE_LINE1":"1 51120U 22005S   22343.82511558  .00002496  00000-0  17489-3 0  9990","APOAPSIS":"541.577","RCS_SIZE":"LARGE","FILE":"3685718","BSTAR":"0.00017489000000","TLE_LINE2":"2 51120  53.2157 212.6877 0002656  38.6535 321.4647 15.08842036 50960","LAUNCH_DATE":"2022-01-19","MEAN_ANOMALY":"321.4647","EPHEMERIS_TYPE":"0","ECCENTRICITY":"0.00026560","CLASSIFICATION_TYPE":"U","TIME_SYSTEM":"UTC","PERIOD":"95.437","SITE":"AFETR","SEMIMAJOR_AXIS":"6917.874","GP_ID":"219855099","PERIAPSIS":"537.902","REV_AT_EPOCH":"5096","OBJECT_ID":"2022-005S","REF_FRAME":"TEME","INCLINATION":"53.2157","OBJECT_TYPE":"PAYLOAD","NORAD_CAT_ID":"51120","MEAN_MOTION_DDOT":"0.0000000000000","RA_OF_ASC_NODE":"212.6877","OBJECT_NAME":"STARLINK-3398","MEAN_MOTION_DOT":"0.00002496","DECAY_DATE":null,"ARG_OF_PERICENTER":"38.6535","MEAN_ELEMENT_THEORY":"SGP4","COUNTRY_CODE":"US","CENTER_NAME":"EARTH","MEAN_MOTION":"15.08842036","ELEMENT_SET_NO":"999"},{"LAUNCH_DATE":"2022-01-19","BSTAR":"-0.00004313200000","TLE_LINE2":"2 51121  53.2167 212.5981 0003370  13.1471 346.9608 15.08834565 50965","FILE":"3685718","RCS_SIZE":"LARGE","TLE_LINE1":"1 51121U 22005T   22343.83983218 -.00000975  00000-0 -43132-4 0  9995","EPOCH":"2022-12-09T20:09:21.500352","APOAPSIS":"542.093","MEAN_ANOMALY":"346.9608","PERIOD":"95.438","TIME_SYSTEM":"UTC","CLASSIFICATION_TYPE":"U","ECCENTRICITY":"0.00033700","EPHEMERIS_TYPE":"0","SEMIMAJOR_AXIS":"6917.897","GP_ID":"219855354","SITE":"AFETR","OBJECT_ID":"2022-005T","REV_AT_EPOCH":"5096","PERIAPSIS":"537.431","INCLINATION":"53.2167","REF_FRAME":"TEME","OBJECT_NAME":"STARLINK-3399","RA_OF_ASC_NODE":"212.5981","MEAN_MOTION_DDOT":"0.0000000000000","NORAD_CAT_ID":"51121","OBJECT_TYPE":"PAYLOAD","MEAN_MOTION":"15.08834565","ELEMENT_SET_NO":"999","COUNTRY_CODE":"US","CENTER_NAME":"EARTH","MEAN_ELEMENT_THEORY":"SGP4","DECAY_DATE":null,"ARG_OF_PERICENTER":"13.1471","MEAN_MOTION_DOT":"-0.00000975"},{"REV_AT_EPOCH":"5096","PERIAPSIS":"537.887","OBJECT_ID":"2022-005U","REF_FRAME":"TEME","INCLINATION":"53.2162","OBJECT_TYPE":"PAYLOAD","NORAD_CAT_ID":"51122","RA_OF_ASC_NODE":"212.6755","MEAN_MOTION_DDOT":"0.0000000000000","OBJECT_NAME":"STARLINK-3373","ARG_OF_PERICENTER":"346.0380","DECAY_DATE":null,"MEAN_MOTION_DOT":"-0.00008668","MEAN_MOTION":"15.08845449","ELEMENT_SET_NO":"999","MEAN_ELEMENT_THEORY":"SGP4","CENTER_NAME":"EARTH","COUNTRY_CODE":"US","RCS_SIZE":"LARGE","FILE":"3685718","APOAPSIS":"541.570","TLE_LINE1":"1 51122U 22005U   22343.82879819 -.00008668  00000-0 -52701-3 0  9994","EPOCH":"2022-12-09T19:53:28.163616","LAUNCH_DATE":"2022-01-19","TLE_LINE2":"2 51122  53.2162 212.6755 0002662 346.0380  14.0538 15.08845449 50969","BSTAR":"-0.00052701000000","MEAN_ANOMALY":"14.0538","TIME_SYSTEM":"UTC","EPHEMERIS_TYPE":"0","ECCENTRICITY":"0.00026620","CLASSIFICATION_TYPE":"U","PERIOD":"95.437","SITE":"AFETR","SEMIMAJOR_AXIS":"6917.864","GP_ID":"219855102"},{"REV_AT_EPOCH":"5093","PERIAPSIS":"537.739","OBJECT_ID":"2022-005V","INCLINATION":"53.2176","REF_FRAME":"TEME","MEAN_MOTION_DDOT":"0.0000000000000","RA_OF_ASC_NODE":"212.7128","OBJECT_TYPE":"PAYLOAD","NORAD_CAT_ID":"51123","OBJECT_NAME":"STARLINK-3392","DECAY_DATE":null,"ARG_OF_PERICENTER":"335.6925","MEAN_MOTION_DOT":"-0.00022176","MEAN_MOTION":"15.08863383","ELEMENT_SET_NO":"999","COUNTRY_CODE":"US","CENTER_NAME":"EARTH","MEAN_ELEMENT_THEORY":"SGP4","FILE":"3685720","RCS_SIZE":"LARGE","TLE_LINE1":"1 51123U 22005V   22343.82144062 -.00022176  00000-0 -13785-2 0  9998","EPOCH":"2022-12-09T19:42:52.469568","APOAPSIS":"541.609","LAUNCH_DATE":"2022-01-19","TLE_LINE2":"2 51123  53.2176 212.7128 0002797 335.6925  24.3935 15.08863383 50937","BSTAR":"-0.00137850000000","MEAN_ANOMALY":"24.3935","TIME_SYSTEM":"UTC","ECCENTRICITY":"0.00027970","CLASSIFICATION_TYPE":"U","EPHEMERIS_TYPE":"0","PERIOD":"95.436","SITE":"AFETR","GP_ID":"219855358","SEMIMAJOR_AXIS":"6917.809"},{"PERIOD":"95.438","ECCENTRICITY":"0.00025390","CLASSIFICATION_TYPE":"U","EPHEMERIS_TYPE":"0","TIME_SYSTEM":"UTC","GP_ID":"219842725","SEMIMAJOR_AXIS":"6917.900","SITE":"AFETR","BSTAR":"0.00028440000000","TLE_LINE2":"2 51124  53.2177 226.3735 0002539  35.0283 325.0876 15.08833580 49597","LAUNCH_DATE":"2022-01-19","APOAPSIS":"541.521","TLE_LINE1":"1 51124U 22005W   22343.00356202  .00004240  00000-0  28440-3 0  9995","EPOCH":"2022-12-09T00:05:07.758528","FILE":"3685263","RCS_SIZE":"LARGE","MEAN_ANOMALY":"325.0876","OBJECT_NAME":"STARLINK-3389","MEAN_MOTION_DDOT":"0.0000000000000","RA_OF_ASC_NODE":"226.3735","NORAD_CAT_ID":"51124","OBJECT_TYPE":"PAYLOAD","COUNTRY_CODE":"US","CENTER_NAME":"EARTH","MEAN_ELEMENT_THEORY":"SGP4","ELEMENT_SET_NO":"999","MEAN_MOTION":"15.08833580","MEAN_MOTION_DOT":"0.00004240","DECAY_DATE":null,"ARG_OF_PERICENTER":"35.0283","OBJECT_ID":"2022-005W","PERIAPSIS":"538.009","REV_AT_EPOCH":"4959","INCLINATION":"53.2177","REF_FRAME":"TEME"},{"REV_AT_EPOCH":"5082","PERIAPSIS":"538.147","OBJECT_ID":"2022-005X","REF_FRAME":"TEME","INCLINATION":"53.2159","NORAD_CAT_ID":"51125","OBJECT_TYPE":"PAYLOAD","RA_OF_ASC_NODE":"222.5615","MEAN_MOTION_DDOT":"0.0000000000000","OBJECT_NAME":"STARLINK-3387","DECAY_DATE":null,"ARG_OF_PERICENTER":"343.0652","MEAN_MOTION_DOT":"-0.00014393","MEAN_MOTION":"15.08824936","ELEMENT_SET_NO":"999","MEAN_ELEMENT_THEORY":"SGP4","CENTER_NAME":"EARTH","COUNTRY_CODE":"US","RCS_SIZE":"LARGE","FILE":"3685735","TLE_LINE1":"1 51125U 22005X   22343.85365626 -.00014393  00000-0 -88832-3 0  9992","APOAPSIS":"541.436","EPOCH":"2022-12-09T20:29:15.900864","LAUNCH_DATE":"2022-01-19","BSTAR":"-0.00088832000000","TLE_LINE2":"2 51125  53.2159 222.5615 0002377 343.0652  17.0261 15.08824936 50824","MEAN_ANOMALY":"17.0261","TIME_SYSTEM":"UTC","EPHEMERIS_TYPE":"0","ECCENTRICITY":"0.00023770","CLASSIFICATION_TYPE":"U","PERIOD":"95.439","SITE":"AFETR","GP_ID":"219855680","SEMIMAJOR_AXIS":"6917.926"},{"MEAN_ANOMALY":"324.4691","TLE_LINE2":"2 51126  53.2157 226.3852 0002737  35.6484 324.4691 15.08837566 50707","BSTAR":"0.00007778000000","LAUNCH_DATE":"2022-01-19","APOAPSIS":"541.646","TLE_LINE1":"1 51126U 22005Y   22342.99986381  .00000950  00000-0  77780-4 0  9997","EPOCH":"2022-12-08T23:59:48.233184","RCS_SIZE":"LARGE","FILE":"3685789","GP_ID":"219856907","SEMIMAJOR_AXIS":"6917.888","SITE":"AFETR","PERIOD":"95.438","EPHEMERIS_TYPE":"0","ECCENTRICITY":"0.00027370","CLASSIFICATION_TYPE":"U","TIME_SYSTEM":"UTC","REF_FRAME":"TEME","INCLINATION":"53.2157","OBJECT_ID":"2022-005Y","PERIAPSIS":"537.859","REV_AT_EPOCH":"5070","MEAN_ELEMENT_THEORY":"SGP4","CENTER_NAME":"EARTH","COUNTRY_CODE":"US","ELEMENT_SET_NO":"999","MEAN_MOTION":"15.08837566","MEAN_MOTION_DOT":"0.00000950","ARG_OF_PERICENTER":"35.6484","DECAY_DATE":null,"OBJECT_NAME":"STARLINK-3386","OBJECT_TYPE":"PAYLOAD","NORAD_CAT_ID":"51126","RA_OF_ASC_NODE":"226.3852","MEAN_MOTION_DDOT":"0.0000000000000"},{"MEAN_MOTION_DOT":"0.00005648","DECAY_DATE":null,"ARG_OF_PERICENTER":"30.8231","MEAN_ELEMENT_THEORY":"SGP4","COUNTRY_CODE":"US","CENTER_NAME":"EARTH","ELEMENT_SET_NO":"999","MEAN_MOTION":"15.08837629","OBJECT_TYPE":"PAYLOAD","NORAD_CAT_ID":"51127","RA_OF_ASC_NODE":"226.4049","MEAN_MOTION_DDOT":"0.0000000000000","OBJECT_NAME":"STARLINK-3370","REF_FRAME":"TEME","INCLINATION":"53.2158","PERIAPSIS":"537.787","REV_AT_EPOCH":"4958","OBJECT_ID":"2022-005Z","SITE":"AFETR","SEMIMAJOR_AXIS":"6917.888","GP_ID":"219842475","EPHEMERIS_TYPE":"0","CLASSIFICATION_TYPE":"U","ECCENTRICITY":"0.00028410","TIME_SYSTEM":"UTC","PERIOD":"95.438","MEAN_ANOMALY":"329.2928","EPOCH":"2022-12-08T23:54:29.755872","TLE_LINE1":"1 51127U 22005Z   22342.99617773  .00005648  00000-0  37270-3 0  9992","APOAPSIS":"541.718","RCS_SIZE":"LARGE","FILE":"3685263","TLE_LINE2":"2 51127  53.2158 226.4049 0002841  30.8231 329.2928 15.08837629 49581","BSTAR":"0.00037270000000","LAUNCH_DATE":"2022-01-19"},{"REV_AT_EPOCH":"5082","PERIAPSIS":"538.094","OBJECT_ID":"2022-005AA","INCLINATION":"53.2152","REF_FRAME":"TEME","MEAN_MOTION_DDOT":"0.0000000000000","RA_OF_ASC_NODE":"222.6268","NORAD_CAT_ID":"51128","OBJECT_TYPE":"PAYLOAD","OBJECT_NAME":"STARLINK-3400","ARG_OF_PERICENTER":"28.6171","DECAY_DATE":null,"MEAN_MOTION_DOT":"0.00000181","ELEMENT_SET_NO":"999","MEAN_MOTION":"15.08830628","COUNTRY_CODE":"US","CENTER_NAME":"EARTH","MEAN_ELEMENT_THEORY":"SGP4","FILE":"3685735","RCS_SIZE":"LARGE","EPOCH":"2022-12-09T20:08:02.332896","TLE_LINE1":"1 51128U 22005AA  22343.83891589  .00000181  00000-0  29496-4 0  9995","APOAPSIS":"541.454","LAUNCH_DATE":"2022-01-19","TLE_LINE2":"2 51128  53.2152 222.6268 0002428  28.6171 331.4954 15.08830628 50821","BSTAR":"0.00002949600000","MEAN_ANOMALY":"331.4954","TIME_SYSTEM":"UTC","ECCENTRICITY":"0.00024280","CLASSIFICATION_TYPE":"U","EPHEMERIS_TYPE":"0","PERIOD":"95.438","SITE":"AFETR","GP_ID":"219855521","SEMIMAJOR_AXIS":"6917.909"},{"MEAN_MOTION":"15.08853818","ELEMENT_SET_NO":"999","COUNTRY_CODE":"US","CENTER_NAME":"EARTH","MEAN_ELEMENT_THEORY":"SGP4","ARG_OF_PERICENTER":"32.4021","DECAY_DATE":null,"MEAN_MOTION_DOT":"0.00005687","OBJECT_NAME":"STARLINK-3396","RA_OF_ASC_NODE":"226.0659","MEAN_MOTION_DDOT":"0.0000000000000","OBJECT_TYPE":"PAYLOAD","NORAD_CAT_ID":"51129","INCLINATION":"53.2156","REF_FRAME":"TEME","OBJECT_ID":"2022-005AB","REV_AT_EPOCH":"4959","PERIAPSIS":"537.765","SEMIMAJOR_AXIS":"6917.838","GP_ID":"219843477","SITE":"AFETR","PERIOD":"95.437","TIME_SYSTEM":"UTC","CLASSIFICATION_TYPE":"U","ECCENTRICITY":"0.00028020","EPHEMERIS_TYPE":"0","MEAN_ANOMALY":"327.7142","LAUNCH_DATE":"2022-01-19","TLE_LINE2":"2 51129  53.2156 226.0659 0002802  32.4021 327.7142 15.08853818 49596","BSTAR":"0.00037501000000","FILE":"3685263","RCS_SIZE":"LARGE","TLE_LINE1":"1 51129U 22005AB  22343.07074515  .00005687  00000-0  37501-3 0  9995","EPOCH":"2022-12-09T01:41:52.380960","APOAPSIS":"541.642"}];
